{
  "type": "FeatureCollection",
  "features": [
    {
      "type": "Feature",
      "properties": {
        "norad_id": 36036,
        "name": "SMOS",
        "group": "resource",
        "lat": 62.14530648412619,
        "lon": 152.19094574138344,
        "alt_km": 752.5527779597642,
        "timestamp": "2025-12-09T09:46:47.303761+00:00",
        "meta_object_name": "SMOS",
        "meta_object_id": "2009-059A",
        "meta_epoch": "2025-12-09T02:48:53.559648",
        "meta_mean_motion": 14.39736041,
        "meta_eccentricity": 0.000111,
        "meta_inclination": 98.4383,
        "meta_ra_of_asc_node": 168.2193,
        "meta_arg_of_pericenter": 84.3146,
        "meta_mean_anomaly": 275.8169,
        "meta_ephemeris_type": 0,
        "meta_classification_type": "U",
        "meta_norad_cat_id": 36036,
        "meta_element_set_no": 999,
        "meta_rev_at_epoch": 84610,
        "meta_bstar": 0.00020332,
        "meta_mean_motion_dot": 5.93e-06,
        "meta_mean_motion_ddot": 0,
        "tle_line1": "1 36036U 09059A   25343.11728657  .00000593  00000+0  20332-3 0  9994",
        "tle_line2": "2 36036  98.4383 168.2193 0001110  84.3146 275.8169 14.39736041846109"
      },
      "geometry": {
        "type": "Point",
        "coordinates": [
          152.19094574138344,
          62.14530648412619
        ]
      }
    },
    {
      "type": "Feature",
      "properties": {
        "norad_id": 36110,
        "name": "YAOGAN-7",
        "group": "resource",
        "lat": 26.410128329978043,
        "lon": 49.19650003677272,
        "alt_km": 648.1165620969832,
        "timestamp": "2025-12-09T09:46:47.303771+00:00",
        "meta_object_name": "YAOGAN-7",
        "meta_object_id": "2009-069A",
        "meta_epoch": "2025-12-08T15:12:38.687040",
        "meta_mean_motion": 14.77723918,
        "meta_eccentricity": 0.0023506,
        "meta_inclination": 98.0303,
        "meta_ra_of_asc_node": 224.4054,
        "meta_arg_of_pericenter": 295.2737,
        "meta_mean_anomaly": 64.6037,
        "meta_ephemeris_type": 0,
        "meta_classification_type": "U",
        "meta_norad_cat_id": 36110,
        "meta_element_set_no": 999,
        "meta_rev_at_epoch": 86148,
        "meta_bstar": 0.00019724,
        "meta_mean_motion_dot": 1.367e-05,
        "meta_mean_motion_ddot": 0,
        "tle_line1": "1 36110U 09069A   25342.63378110  .00001367  00000+0  19724-3 0  9992",
        "tle_line2": "2 36110  98.0303 224.4054 0023506 295.2737  64.6037 14.77723918861480"
      },
      "geometry": {
        "type": "Point",
        "coordinates": [
          49.19650003677272,
          26.410128329978043
        ]
      }
    },
    {
      "type": "Feature",
      "properties": {
        "norad_id": 36605,
        "name": "TANDEM-X",
        "group": "resource",
        "lat": -79.86245413403782,
        "lon": 121.83569283714368,
        "alt_km": 517.1502448192177,
        "timestamp": "2025-12-09T09:46:47.303782+00:00",
        "meta_object_name": "TANDEM-X",
        "meta_object_id": "2010-030A",
        "meta_epoch": "2025-12-08T13:39:18.929376",
        "meta_mean_motion": 15.19159019,
        "meta_eccentricity": 0.0002067,
        "meta_inclination": 97.4453,
        "meta_ra_of_asc_node": 348.0112,
        "meta_arg_of_pericenter": 89.3333,
        "meta_mean_anomaly": 270.8138,
        "meta_ephemeris_type": 0,
        "meta_classification_type": "U",
        "meta_norad_cat_id": 36605,
        "meta_element_set_no": 999,
        "meta_rev_at_epoch": 85770,
        "meta_bstar": 0.00014235,
        "meta_mean_motion_dot": 2.924e-05,
        "meta_mean_motion_ddot": 0,
        "tle_line1": "1 36605U 10030A   25342.56896909  .00002924  00000+0  14235-3 0  9996",
        "tle_line2": "2 36605  97.4453 348.0112 0002067  89.3333 270.8138 15.19159019857704"
      },
      "geometry": {
        "type": "Point",
        "coordinates": [
          121.83569283714368,
          -79.86245413403782
        ]
      }
    },
    {
      "type": "Feature",
      "properties": {
        "norad_id": 36795,
        "name": "CARTOSAT-2B",
        "group": "resource",
        "lat": 67.13078390355678,
        "lon": 13.618864708984141,
        "alt_km": 618.0323437539628,
        "timestamp": "2025-12-09T09:46:47.303793+00:00",
        "meta_object_name": "CARTOSAT-2B",
        "meta_object_id": "2010-035A",
        "meta_epoch": "2025-12-09T04:36:00.332928",
        "meta_mean_motion": 14.78782201,
        "meta_eccentricity": 0.0012951,
        "meta_inclination": 97.7853,
        "meta_ra_of_asc_node": 32.3374,
        "meta_arg_of_pericenter": 87.8656,
        "meta_mean_anomaly": 272.4039,
        "meta_ephemeris_type": 0,
        "meta_classification_type": "U",
        "meta_norad_cat_id": 36795,
        "meta_element_set_no": 999,
        "meta_rev_at_epoch": 83177,
        "meta_bstar": 0.00017487,
        "meta_mean_motion_dot": 1.237e-05,
        "meta_mean_motion_ddot": 0,
        "tle_line1": "1 36795U 10035A   25343.19167052  .00001237  00000+0  17487-3 0  9999",
        "tle_line2": "2 36795  97.7853  32.3374 0012951  87.8656 272.4039 14.78782201831774"
      },
      "geometry": {
        "type": "Point",
        "coordinates": [
          13.618864708984141,
          67.13078390355678
        ]
      }
    },
    {
      "type": "Feature",
      "properties": {
        "norad_id": 36834,
        "name": "YAOGAN-10",
        "group": "resource",
        "lat": 76.2330346379667,
        "lon": -31.34126746448524,
        "alt_km": 606.7043831034653,
        "timestamp": "2025-12-09T09:46:47.303804+00:00",
        "meta_object_name": "YAOGAN-10",
        "meta_object_id": "2010-038A",
        "meta_epoch": "2025-12-08T23:58:38.643168",
        "meta_mean_motion": 14.84583858,
        "meta_eccentricity": 0.00013969,
        "meta_inclination": 97.9141,
        "meta_ra_of_asc_node": 2.847,
        "meta_arg_of_pericenter": 82.2182,
        "meta_mean_anomaly": 334.9652,
        "meta_ephemeris_type": 0,
        "meta_classification_type": "U",
        "meta_norad_cat_id": 36834,
        "meta_element_set_no": 999,
        "meta_rev_at_epoch": 82898,
        "meta_bstar": 0.00030748422,
        "meta_mean_motion_dot": 2.542e-05,
        "meta_mean_motion_ddot": 0,
        "tle_line1": "1 36834U 10038A   25342.99905837  .00002542  00000+0  30748-3 0  9999",
        "tle_line2": "2 36834  97.9141   2.8470 0001396  82.2182 334.9652 14.84583858828981"
      },
      "geometry": {
        "type": "Point",
        "coordinates": [
          -31.34126746448524,
          76.2330346379667
        ]
      }
    },
    {
      "type": "Feature",
      "properties": {
        "norad_id": 37216,
        "name": "COSMO-SKYMED 4",
        "group": "resource",
        "lat": 30.605428854836426,
        "lon": 160.08100600262716,
        "alt_km": 620.2443173049369,
        "timestamp": "2025-12-09T09:46:47.303815+00:00",
        "meta_object_name": "COSMO-SKYMED 4",
        "meta_object_id": "2010-060A",
        "meta_epoch": "2025-12-09T04:46:47.955360",
        "meta_mean_motion": 14.82161696,
        "meta_eccentricity": 0.0001386,
        "meta_inclination": 97.8802,
        "meta_ra_of_asc_node": 164.5753,
        "meta_arg_of_pericenter": 78.4136,
        "meta_mean_anomaly": 281.7233,
        "meta_ephemeris_type": 0,
        "meta_classification_type": "U",
        "meta_norad_cat_id": 37216,
        "meta_element_set_no": 999,
        "meta_rev_at_epoch": 81642,
        "meta_bstar": 0.00013496,
        "meta_mean_motion_dot": 1.023e-05,
        "meta_mean_motion_ddot": 0,
        "tle_line1": "1 37216U 10060A   25343.19916615  .00001023  00000+0  13496-3 0  9992",
        "tle_line2": "2 37216  97.8802 164.5753 0001386  78.4136 281.7233 14.82161696816424"
      },
      "geometry": {
        "type": "Point",
        "coordinates": [
          160.08100600262716,
          30.605428854836426
        ]
      }
    },
    {
      "type": "Feature",
      "properties": {
        "norad_id": 37387,
        "name": "RESOURCESAT-2",
        "group": "resource",
        "lat": 1.1398040651074974,
        "lon": 46.79786322709237,
        "alt_km": 819.6702958358956,
        "timestamp": "2025-12-09T09:46:47.303825+00:00",
        "meta_object_name": "RESOURCESAT-2",
        "meta_object_id": "2011-015A",
        "meta_epoch": "2025-12-09T04:42:24.539040",
        "meta_mean_motion": 14.21594911,
        "meta_eccentricity": 0.0006589,
        "meta_inclination": 98.7881,
        "meta_ra_of_asc_node": 46.7638,
        "meta_arg_of_pericenter": 51.7801,
        "meta_mean_anomaly": 308.3969,
        "meta_ephemeris_type": 0,
        "meta_classification_type": "U",
        "meta_norad_cat_id": 37387,
        "meta_element_set_no": 999,
        "meta_rev_at_epoch": 75918,
        "meta_bstar": 0.00012605,
        "meta_mean_motion_dot": 2.32e-06,
        "meta_mean_motion_ddot": 0,
        "tle_line1": "1 37387U 11015A   25343.19611735  .00000232  00000+0  12605-3 0  9999",
        "tle_line2": "2 37387  98.7881  46.7638 0006589  51.7801 308.3969 14.21594911759180"
      },
      "geometry": {
        "type": "Point",
        "coordinates": [
          46.79786322709237,
          1.1398040651074974
        ]
      }
    }
  ]
}